<?xml version="1.0" encoding="UTF-8"?>
<kml xmlns="http://www.opengis.net/kml/2.2" xmlns:gx="http://www.google.com/kml/ext/2.2" xmlns:kml="http://www.opengis.net/kml/2.2" xmlns:atom="http://www.w3.org/2005/Atom">
<Document>
	<name>Scenic path Bravo Laval.kml</name>
	<StyleMap id="m_ylw-pushpin">
		<Pair>
			<key>normal</key>
			<styleUrl>#s_ylw-pushpin</styleUrl>
		</Pair>
		<Pair>
			<key>highlight</key>
			<styleUrl>#s_ylw-pushpin_hl</styleUrl>
		</Pair>
	</StyleMap>
	<Style id="s_ylw-pushpin">
		<IconStyle>
			<scale>1.1</scale>
			<Icon>
				<href>http://maps.google.com/mapfiles/kml/pushpin/ylw-pushpin.png</href>
			</Icon>
			<hotSpot x="20" y="2" xunits="pixels" yunits="pixels"/>
		</IconStyle>
	</Style>
	<Style id="s_ylw-pushpin_hl">
		<IconStyle>
			<scale>1.3</scale>
			<Icon>
				<href>http://maps.google.com/mapfiles/kml/pushpin/ylw-pushpin.png</href>
			</Icon>
			<hotSpot x="20" y="2" xunits="pixels" yunits="pixels"/>
		</IconStyle>
	</Style>
	<Placemark>
		<name>Scenic path Bravo Laval</name>
		<styleUrl>#m_ylw-pushpin</styleUrl>
		<LineString>
			<tessellate>1</tessellate>
			<coordinates>
				-0.7452927420460786,48.176999086482,0 -0.7411788325017854,48.1829292740266,0 -0.7401793591429195,48.18529771367178,0 -0.7366174362881728,48.18670075607952,0 -0.7338298181316949,48.1866038277981,0 -0.727916658211093,48.18898390148607,0 -0.7264364796563783,48.19007721119075,0 -0.7233608758636523,48.1902430931364,0 -0.7219753730483458,48.19134166378672,0 -0.7212411411210684,48.19512866294735,0 -0.7198497084075994,48.19628379151069,0 -0.7176812342324357,48.19694300640431,0 -0.7118347738861075,48.2002003399652,0 -0.7116509997525766,48.20355101797397,0 -0.7099936126034334,48.2075087447496,0 -0.7099854651520598,48.2093990652,0 -0.7081539659751812,48.21132208580413,0 -0.7050116217773328,48.21190268794602,0 -0.7015029681759444,48.21435915192343,0 -0.6991136064160575,48.21514667860257,0 -0.69792404729621,48.2162008398654,0 -0.697166082558266,48.22071717330459,0 -0.6997298110347883,48.22576995349068,0 -0.6994751169023239,48.22676178949553,0 -0.6954685515737768,48.22923094628852,0 -0.6951932610176859,48.23047555772744,0 -0.6884481572023893,48.23266474269043,0 -0.6827128230129975,48.23306321052537,0 -0.6807654358164084,48.23270668461151,0 -0.6756611877369767,48.2329658413398,0 -0.6728390221133318,48.23555453990716,0 -0.6721353654883144,48.23709946120653,0 -0.6651836443035142,48.24223158569388,0 -0.657926358435188,48.2451702537942,0 -0.6564639179061016,48.24492971093507,0 -0.65531074665786,48.24390060534799,0 -0.6519868460323297,48.24420109499885,0 -0.6514406721938637,48.24529761560347,0 -0.6514672052162429,48.2538487186215,0 -0.652714309336665,48.25533010832937,0 
			</coordinates>
		</LineString>
		<atom:link rel="app" href="https://www.google.com/earth/about/versions/#earth-pro" title="Google Earth Pro 7.3.7.1155"></atom:link>
	</Placemark>
</Document>
</kml>
